STARLINK-30327          
1 57707U 23129K   26068.51769668  .00007635  00000+0  29314-3 0  9995
2 57707  42.9974  85.9834 0023030  70.8320 289.5022 15.26626807140903
STARLINK-35570          
1 66090U 25236E   26068.33105382  .00022963  00000+0  78500-3 0  9990
2 66090  53.1572 105.2583 0001274  88.6862 271.4284 15.30200309 22894
